DUPLEX                  
1 66906U 98067XS  26020.17835447  .00069533  00000+0  11020-2 0  9997
2 66906  51.6319 311.4722 0002259  35.3914 324.7225 15.52751398  7588
1998-067XT              
1 66907U 98067XT  26020.75491536  .00170709  00000+0  22403-2 0  9994
2 66907  51.6299 307.8230 0003450  94.6771 265.4615 15.57431475  7683
1998-067XU              
1 66908U 98067XU  26020.94674669  .00126600  00000+0  16736-2 0  9999
2 66908  51.6296 306.8521 0003357  91.6665 268.4712 15.57411728  7712
SILVERSAT               
1 66909U 98067XV  26020.03718113  .00110318  00000+0  14363-2 0  9996
2 66909  51.6303 311.2784 0003691  97.1905 262.9507 15.57887613  7577
1998-067XW              
1 66910U 98067XW  26020.81009961  .00156464  00000+0  20379-2 0  9994
2 66910  51.6290 307.4376 0002172  79.0996 281.0240 15.57691661  7695
1998-067XX              
1 66911U 98067XX  26020.98217628  .00154483  00000+0  18960-2 0  9996
2 66911  51.6289 306.3371 0002416 108.1286 251.9970 15.59275653  7714
1998-067XY              
1 66912U 98067XY  26020.52254576  .00123468  00000+0  17430-2 0  9990
2 66912  51.6315 309.2704 0003108  71.2936 288.8392 15.55655265  7633
