CCSDS_OMM_VERS = 2.0
CREATION_DATE  = 
ORIGINATOR     = 

OBJECT_NAME    = DUPLEX
OBJECT_ID      = 1998-067XS
CENTER_NAME    = EARTH
REF_FRAME      = TEME
TIME_SYSTEM    = UTC
MEAN_ELEMENT_THEORY = SGP/SGP4

EPOCH          = 2026-01-20T04:16:49.826208
MEAN_MOTION    = 15.52751398
ECCENTRICITY   = .0002259
INCLINATION    = 51.6319
RA_OF_ASC_NODE = 311.4722
ARG_OF_PERICENTER = 35.3914
MEAN_ANOMALY   = 324.7225

EPHEMERIS_TYPE = 0
CLASSIFICATION_TYPE = U
NORAD_CAT_ID   = 66906
ELEMENT_SET_NO = 999
REV_AT_EPOCH   = 758
BSTAR          = .11019908E-2
MEAN_MOTION_DOT = .69533E-3
MEAN_MOTION_DDOT = 0

CCSDS_OMM_VERS = 2.0
CREATION_DATE  = 
ORIGINATOR     = 

OBJECT_NAME    = 1998-067XT
OBJECT_ID      = 1998-067XT
CENTER_NAME    = EARTH
REF_FRAME      = TEME
TIME_SYSTEM    = UTC
MEAN_ELEMENT_THEORY = SGP/SGP4

EPOCH          = 2026-01-20T18:07:04.687104
MEAN_MOTION    = 15.57431475
ECCENTRICITY   = .00034503
INCLINATION    = 51.6299
RA_OF_ASC_NODE = 307.8230
ARG_OF_PERICENTER = 94.6771
MEAN_ANOMALY   = 265.4615

EPHEMERIS_TYPE = 0
CLASSIFICATION_TYPE = U
NORAD_CAT_ID   = 66907
ELEMENT_SET_NO = 999
REV_AT_EPOCH   = 768
BSTAR          = .22403369E-2
MEAN_MOTION_DOT = .170709E-2
MEAN_MOTION_DDOT = 0

CCSDS_OMM_VERS = 2.0
CREATION_DATE  = 
ORIGINATOR     = 

OBJECT_NAME    = 1998-067XU
OBJECT_ID      = 1998-067XU
CENTER_NAME    = EARTH
REF_FRAME      = TEME
TIME_SYSTEM    = UTC
MEAN_ELEMENT_THEORY = SGP/SGP4

EPOCH          = 2026-01-20T22:43:18.914016
MEAN_MOTION    = 15.57411728
ECCENTRICITY   = .00033572
INCLINATION    = 51.6296
RA_OF_ASC_NODE = 306.8521
ARG_OF_PERICENTER = 91.6665
MEAN_ANOMALY   = 268.4712

EPHEMERIS_TYPE = 0
CLASSIFICATION_TYPE = U
NORAD_CAT_ID   = 66908
ELEMENT_SET_NO = 999
REV_AT_EPOCH   = 771
BSTAR          = .16736281E-2
MEAN_MOTION_DOT = .1266E-2
MEAN_MOTION_DDOT = 0

CCSDS_OMM_VERS = 2.0
CREATION_DATE  = 
ORIGINATOR     = 

OBJECT_NAME    = SILVERSAT
OBJECT_ID      = 1998-067XV
CENTER_NAME    = EARTH
REF_FRAME      = TEME
TIME_SYSTEM    = UTC
MEAN_ELEMENT_THEORY = SGP/SGP4

EPOCH          = 2026-01-20T00:53:32.449632
MEAN_MOTION    = 15.57887613
ECCENTRICITY   = .00036919
INCLINATION    = 51.6303
RA_OF_ASC_NODE = 311.2784
ARG_OF_PERICENTER = 97.1905
MEAN_ANOMALY   = 262.9507

EPHEMERIS_TYPE = 0
CLASSIFICATION_TYPE = U
NORAD_CAT_ID   = 66909
ELEMENT_SET_NO = 999
REV_AT_EPOCH   = 757
BSTAR          = .14363288E-2
MEAN_MOTION_DOT = .110318E-2
MEAN_MOTION_DDOT = 0

CCSDS_OMM_VERS = 2.0
CREATION_DATE  = 
ORIGINATOR     = 

OBJECT_NAME    = 1998-067XW
OBJECT_ID      = 1998-067XW
CENTER_NAME    = EARTH
REF_FRAME      = TEME
TIME_SYSTEM    = UTC
MEAN_ELEMENT_THEORY = SGP/SGP4

EPOCH          = 2026-01-20T19:26:32.606304
MEAN_MOTION    = 15.57691661
ECCENTRICITY   = .00021725
INCLINATION    = 51.6290
RA_OF_ASC_NODE = 307.4376
ARG_OF_PERICENTER = 79.0996
MEAN_ANOMALY   = 281.0240

EPHEMERIS_TYPE = 0
CLASSIFICATION_TYPE = U
NORAD_CAT_ID   = 66910
ELEMENT_SET_NO = 999
REV_AT_EPOCH   = 769
BSTAR          = .20378875E-2
MEAN_MOTION_DOT = .156464E-2
MEAN_MOTION_DDOT = 0

CCSDS_OMM_VERS = 2.0
CREATION_DATE  = 
ORIGINATOR     = 

OBJECT_NAME    = 1998-067XX
OBJECT_ID      = 1998-067XX
CENTER_NAME    = EARTH
REF_FRAME      = TEME
TIME_SYSTEM    = UTC
MEAN_ELEMENT_THEORY = SGP/SGP4

EPOCH          = 2026-01-20T23:34:20.030592
MEAN_MOTION    = 15.59275653
ECCENTRICITY   = .00024167
INCLINATION    = 51.6289
RA_OF_ASC_NODE = 306.3371
ARG_OF_PERICENTER = 108.1286
MEAN_ANOMALY   = 251.9970

EPHEMERIS_TYPE = 0
CLASSIFICATION_TYPE = U
NORAD_CAT_ID   = 66911
ELEMENT_SET_NO = 999
REV_AT_EPOCH   = 771
BSTAR          = .18960488E-2
MEAN_MOTION_DOT = .154483E-2
MEAN_MOTION_DDOT = 0

CCSDS_OMM_VERS = 2.0
CREATION_DATE  = 
ORIGINATOR     = 

OBJECT_NAME    = 1998-067XY
OBJECT_ID      = 1998-067XY
CENTER_NAME    = EARTH
REF_FRAME      = TEME
TIME_SYSTEM    = UTC
MEAN_ELEMENT_THEORY = SGP/SGP4

EPOCH          = 2026-01-20T12:32:27.953664
MEAN_MOTION    = 15.55655265
ECCENTRICITY   = .00031088
INCLINATION    = 51.6315
RA_OF_ASC_NODE = 309.2704
ARG_OF_PERICENTER = 71.2936
MEAN_ANOMALY   = 288.8392

EPHEMERIS_TYPE = 0
CLASSIFICATION_TYPE = U
NORAD_CAT_ID   = 66912
ELEMENT_SET_NO = 999
REV_AT_EPOCH   = 763
BSTAR          = .17430341E-2
MEAN_MOTION_DOT = .123468E-2
MEAN_MOTION_DDOT = 0

